[{"OBJECT_NAME":"YAOGAN-36 02A","OBJECT_ID":"2022-133A","EPOCH":"2026-03-10T00:04:36.049728","MEAN_MOTION":15.23118612,"ECCENTRICITY":0.00301484,"INCLINATION":35.0077,"RA_OF_ASC_NODE":23.5078,"ARG_OF_PERICENTER":29.898,"MEAN_ANOMALY":330.345,"EPHEMERIS_TYPE":0,"CLASSIFICATION_TYPE":"U","NORAD_CAT_ID":54042,"ELEMENT_SET_NO":999,"REV_AT_EPOCH":18962,"BSTAR":0.00070143583,"MEAN_MOTION_DOT":0.00017174,"MEAN_MOTION_DDOT":0},{"OBJECT_NAME":"STARLINK-32814","OBJECT_ID":"2025-022T","EPOCH":"2026-03-09T10:58:57.065088","MEAN_MOTION":15.301863,"ECCENTRICITY":0.00013744,"INCLINATION":53.157,"RA_OF_ASC_NODE":130.761,"ARG_OF_PERICENTER":90.3194,"MEAN_ANOMALY":269.7964,"EPHEMERIS_TYPE":0,"CLASSIFICATION_TYPE":"U","NORAD_CAT_ID":62871,"ELEMENT_SET_NO":999,"REV_AT_EPOCH":6186,"BSTAR":0.00073042305,"MEAN_MOTION_DOT":0.00021327,"MEAN_MOTION_DDOT":0}]
